OBJECT_NAME,OBJECT_ID,EPOCH,MEAN_MOTION,ECCENTRICITY,INCLINATION,RA_OF_ASC_NODE,ARG_OF_PERICENTER,MEAN_ANOMALY,EPHEMERIS_TYPE,CLASSIFICATION_TYPE,NORAD_CAT_ID,ELEMENT_SET_NO,REV_AT_EPOCH,BSTAR,MEAN_MOTION_DOT,MEAN_MOTION_DDOT
IRIDIUM 154,2018-061F,2026-06-18T10:01:26.357952,14.34216845,.00021691,86.3960,56.2923,88.2649,271.8795,0,U,43574,999,41358,.36937615E-4,.123E-5,0
IRIDIUM 163,2018-061G,2026-06-18T14:35:26.321856,14.34216514,.00022339,86.3958,56.1281,83.7013,276.4437,0,U,43575,999,41358,.8426982E-5,.43E-6,0
IRIDIUM 156,2018-061H,2026-06-18T03:56:06.665856,14.34215588,.00020682,86.3960,56.3211,82.8244,277.3187,0,U,43576,999,41351,.67874771E-4,.21E-5,0
IRIDIUM 164,2018-061J,2026-06-18T10:10:34.432896,14.34217495,.00021671,86.3960,56.2527,89.4984,270.6460,0,U,43577,999,41359,.60328201E-4,.189E-5,0
IRIDIUM 159,2018-061K,2026-06-18T14:26:18.521664,14.34217629,.00022743,86.3959,56.1152,83.7520,276.3935,0,U,43578,999,41358,.6809325E-5,.39E-6,0
IRIDIUM 180,2019-002A,2026-06-18T14:25:34.894848,14.34217568,.00022567,86.3971,353.0062,89.2124,270.9330,0,U,43922,999,38919,.47348278E-4,.152E-5,0
IRIDIUM 176,2019-002B,2026-06-18T12:26:18.928032,14.72268563,.00023092,86.6091,352.9842,93.0519,267.0962,0,U,43923,999,39944,.90778715E-4,.597E-5,0
IRIDIUM 168,2019-002C,2026-06-18T12:35:58.597728,14.34219338,.00021925,86.3974,353.1155,89.7901,270.3546,0,U,43924,999,38916,.39520037E-4,.13E-5,0
IRIDIUM 173,2019-002D,2026-06-18T10:37:14.939328,14.34217141,.00021808,86.3968,353.0388,87.2268,272.9177,0,U,43925,999,38913,.4696876E-4,.151E-5,0
IRIDIUM 169,2019-002E,2026-06-18T07:05:38.096448,14.38609452,.0001813,86.4223,24.7299,73.4393,286.7004,0,U,43926,999,39038,.64853157E-4,.218E-5,0
IRIDIUM 172,2019-002F,2026-06-18T12:08:34.674432,14.34219038,.00022569,86.3970,353.0202,88.5995,271.5459,0,U,43927,999,38915,.49823859E-4,.159E-5,0
IRIDIUM 175,2019-002G,2026-06-18T14:13:40.198368,14.43613386,.00026851,86.4514,289.9332,174.8560,185.2669,0,U,43928,999,39918,.72832109E-4,.267E-5,0
IRIDIUM 171,2019-002H,2026-06-18T11:41:10.904928,14.34217347,.00019424,86.3975,353.3344,91.3210,268.8209,0,U,43929,999,38914,-.20091186E-4,-.36E-6,0
IRIDIUM 170,2019-002J,2026-06-18T01:10:06.463488,14.72268543,.00023566,86.6091,353.1830,89.3305,270.8182,0,U,43930,999,39938,.92772602E-4,.61E-5,0
IRIDIUM 167,2019-002K,2026-06-18T11:32:02.872320,14.34217549,.00017786,86.3966,353.0532,92.7104,267.4296,0,U,43931,999,38914,-.2608776E-5,.12E-6,0
IRIDIUM 181,2023-068S,2026-06-18T10:10:08.413536,14.43313046,.00023494,86.4497,56.2737,88.1580,271.9890,0,U,56726,999,16261,.71352895E-4,.26E-5,0
IRIDIUM 177,2023-068T,2026-06-18T09:42:03.485664,14.80226116,.0002355,86.1965,328.2134,88.5696,271.5795,0,U,56727,999,16654,.63132736E-4,.506E-5,0
IRIDIUM 174,2023-068U,2026-06-18T12:17:27.279456,14.72265443,.00024523,86.6098,353.1367,84.2305,275.9192,0,U,56728,999,16621,.93432137E-4,.614E-5,0
IRIDIUM 178,2023-068V,2026-06-18T07:49:03.333792,14.80235548,.0002626,86.6536,24.8843,85.7033,274.4489,0,U,56729,999,16653,.98682903E-4,.776E-5,0
IRIDIUM 179,2023-068W,2026-06-18T02:49:14.703456,14.80232457,.00024651,86.6774,33.9542,88.3996,271.7508,0,U,56730,999,16650,.91908835E-4,.725E-5,0
